CCSDS_OMM_VERS,COMMENT,CREATION_DATE,ORIGINATOR,OBJECT_NAME,OBJECT_ID,CENTER_NAME,REF_FRAME,TIME_SYSTEM,MEAN_ELEMENT_THEORY,EPOCH,MEAN_MOTION,ECCENTRICITY,INCLINATION,RA_OF_ASC_NODE,ARG_OF_PERICENTER,MEAN_ANOMALY,EPHEMERIS_TYPE,CLASSIFICATION_TYPE,NORAD_CAT_ID,ELEMENT_SET_NO,REV_AT_EPOCH,BSTAR,MEAN_MOTION_DOT,MEAN_MOTION_DDOT,SEMIMAJOR_AXIS,PERIOD,APOAPSIS,PERIAPSIS,OBJECT_TYPE,RCS_SIZE,COUNTRY_CODE,LAUNCH_DATE,SITE,DECAY_DATE,FILE,GP_ID,TLE_LINE0,TLE_LINE1,TLE_LINE2
"2.0","GENERATED VIA SPACE-TRACK.ORG API","2020-12-12T14:46:10","18 SPCS","STARLINK-1694","2020-070N","EARTH","TEME","UTC","SGP4","2020-12-12T14:00:01.000224","15.58589226","0.00012890","52.9978","113.0971","115.3921","164.3820","0","U","46544","999","1133","-0.01333800000000","-0.00942917","0.0000000000000","6769.876","92.391","392.613","390.868","PAYLOAD","","US","2020-10-06","AFETR","","2901835","167597051","0 STARLINK-1694","1 46544U 20070N   20347.58334491 -.00942917  00000-0 -13338-1 0  9998","2 46544  52.9978 113.0971 0001289 115.3921 164.3820 15.58589226 11332"
"2.0","GENERATED VIA SPACE-TRACK.ORG API","2020-12-12T22:46:10","18 SPCS","STARLINK-1694","2020-070N","EARTH","TEME","UTC","SGP4","2020-12-12T22:00:00.999936","15.57841449","0.00010420","52.9970","111.4791","92.5102","258.2851","0","U","46544","999","1138","-0.01455200000000","-0.01009118","0.0000000000000","6772.042","92.435","394.613","393.201","PAYLOAD","","US","2020-10-06","AFETR","","2902026","167644785","0 STARLINK-1694","1 46544U 20070N   20347.91667824 -.01009118  00000-0 -14552-1 0  9991","2 46544  52.9970 111.4791 0001042  92.5102 258.2851 15.57841449 11389"
"2.0","GENERATED VIA SPACE-TRACK.ORG API","2020-12-13T05:18:45","18 SPCS","STARLINK-1694","2020-070N","EARTH","TEME","UTC","SGP4","2020-12-12T22:00:00.999936","15.57841449","0.00010420","52.9970","111.4791","92.5102","258.2851","0","U","46544","999","176","-0.01455200000000","-0.01009118","0.0000000000000","6772.042","92.435","394.613","393.201","PAYLOAD","","US","2020-10-06","AFETR","","2902034","167687078","0 STARLINK-1694","1 46544U 20070N   20347.91667824 -.01009118  00000-0 -14552-1 0  9991","2 46544  52.9970 111.4791 0001042  92.5102 258.2851 15.57841449  1760"
"2.0","GENERATED VIA SPACE-TRACK.ORG API","2020-12-13T07:06:09","18 SPCS","STARLINK-1694","2020-070N","EARTH","TEME","UTC","SGP4","2020-12-13T06:00:00.999648","15.57106246","0.00011090","52.9986","109.8590","79.4398","341.4245","0","U","46544","999","1143","-0.01609100000000","-0.01078426","0.0000000000000","6774.173","92.479","396.790","395.287","PAYLOAD","","US","2020-10-06","AFETR","","2902187","167691818","0 STARLINK-1694","1 46544U 20070N   20348.25001157 -.01078426  00000-0 -16091-1 0  9998","2 46544  52.9986 109.8590 0001109  79.4398 341.4245 15.57106246 11436"
"2.0","GENERATED VIA SPACE-TRACK.ORG API","2020-12-13T20:07:11","18 SPCS","STARLINK-1694","2020-070N","EARTH","TEME","UTC","SGP4","2020-12-13T06:00:00.999648","15.57106246","0.00011090","52.9986","109.8590","79.4398","341.4245","0","U","46544","999","177","-0.01609100000000","-0.01078426","0.0000000000000","6774.173","92.479","396.790","395.287","PAYLOAD","","US","2020-10-06","AFETR","","2902446","167718397","0 STARLINK-1694","1 46544U 20070N   20348.25001157 -.01078426  00000-0 -16091-1 0  9998","2 46544  52.9986 109.8590 0001109  79.4398 341.4245 15.57106246  1772"
"2.0","GENERATED VIA SPACE-TRACK.ORG API","2020-12-13T22:46:10","18 SPCS","STARLINK-1694","2020-070N","EARTH","TEME","UTC","SGP4","2020-12-13T22:00:00.999936","15.55510388","0.00013040","52.9974","106.6319","96.8807","101.3423","0","U","46544","999","1153","-0.01654100000000","-0.01047405","0.0000000000000","6778.806","92.574","401.555","399.787","PAYLOAD","","US","2020-10-06","AFETR","","2902625","167744360","0 STARLINK-1694","1 46544U 20070N   20348.91667824 -.01047405  00000-0 -16541-1 0  9993","2 46544  52.9974 106.6319 0001304  96.8807 101.3423 15.55510388 11538"
"2.0","GENERATED VIA SPACE-TRACK.ORG API","2020-12-14T14:46:09","18 SPCS","STARLINK-1694","2020-070N","EARTH","TEME","UTC","SGP4","2020-12-14T14:00:01.000224","15.53919398","0.00010500","52.9985","103.4081","109.0857","222.7141","0","U","46544","999","1164","-0.01703400000000","-0.01019607","0.0000000000000","6783.432","92.668","406.009","404.585","PAYLOAD","","US","2020-10-06","AFETR","","2902945","167795084","0 STARLINK-1694","1 46544U 20070N   20349.58334491 -.01019607  00000-0 -17034-1 0  9999","2 46544  52.9985 103.4081 0001050 109.0857 222.7141 15.53919398 11640"
"2.0","GENERATED VIA SPACE-TRACK.ORG API","2020-12-14T19:41:07","18 SPCS","STARLINK-1694","2020-070N","EARTH","TEME","UTC","SGP4","2020-12-14T14:00:01.000224","15.53919398","0.00010500","52.9985","103.4081","109.0857","222.7141","0","U","46544","999","177","-0.01703400000000","-0.01019607","0.0000000000000","6783.432","92.668","406.009","404.585","PAYLOAD","","US","2020-10-06","AFETR","","2902965","167816697","0 STARLINK-1694","1 46544U 20070N   20349.58334491 -.01019607  00000-0 -17034-1 0  9999","2 46544  52.9985 103.4081 0001050 109.0857 222.7141 15.53919398  1773"
"2.0","GENERATED VIA SPACE-TRACK.ORG API","2020-12-15T07:06:09","18 SPCS","STARLINK-1694","2020-070N","EARTH","TEME","UTC","SGP4","2020-12-15T06:00:00.999648","15.52379061","0.00013130","53.0006","100.1961","68.9110","32.6685","0","U","46544","999","1174","-0.01875000000000","-0.01057315","0.0000000000000","6787.919","92.760","410.675","408.892","PAYLOAD","","US","2020-10-06","AFETR","","2903271","167823662","0 STARLINK-1694","1 46544U 20070N   20350.25001157 -.01057315  00000-0 -18750-1 0  9999","2 46544  53.0006 100.1961 0001313  68.9110  32.6685 15.52379061 11742"
"2.0","GENERATED VIA SPACE-TRACK.ORG API","2020-12-16T00:49:11","18 SPCS","STARLINK-1694","2020-070N","EARTH","TEME","UTC","SGP4","2020-12-15T14:00:01.000224","15.51527870","0.00012930","53.0001","98.5910","96.4069","68.6905","0","U","46544","999","177","-0.01761800000000","-0.00971126","0.0000000000000","6790.401","92.811","413.144","411.388","PAYLOAD","","US","2020-10-06","AFETR","","2903454","167848747","0 STARLINK-1694","1 46544U 20070N   20350.58334491 -.00971126  00000-0 -17618-1 0  9991","2 46544  53.0001  98.5910 0001293  96.4069  68.6905 15.51527870  1775"
"2.0","GENERATED VIA SPACE-TRACK.ORG API","2020-12-15T22:56:10","18 SPCS","STARLINK-1694","2020-070N","EARTH","TEME","UTC","SGP4","2020-12-15T22:00:00.999936","15.50780802","0.00011830","52.9975","96.9908","94.2927","133.3239","0","U","46544","999","1185","-0.01895800000000","-0.01013280","0.0000000000000","6792.582","92.856","415.250","413.643","PAYLOAD","","US","2020-10-06","AFETR","","2903440","167826556","0 STARLINK-1694","1 46544U 20070N   20350.91667824 -.01013280  00000-0 -18958-1 0  9994","2 46544  52.9975  96.9908 0001183  94.2927 133.3239 15.50780802 11854"
"2.0","GENERATED VIA SPACE-TRACK.ORG API","2020-12-16T04:20:45","18 SPCS","STARLINK-1694","2020-070N","EARTH","TEME","UTC","SGP4","2020-12-15T22:00:00.999936","15.50780802","0.00011830","52.9975","96.9908","94.2927","133.3239","0","U","46544","999","177","-0.01895800000000","-0.01013280","0.0000000000000","6792.582","92.856","415.250","413.643","PAYLOAD","","US","2020-10-06","AFETR","","2903457","167870603","0 STARLINK-1694","1 46544U 20070N   20350.91667824 -.01013280  00000-0 -18958-1 0  9994","2 46544  52.9975  96.9908 0001183  94.2927 133.3239 15.50780802  1774"
"2.0","GENERATED VIA SPACE-TRACK.ORG API","2020-12-16T07:36:09","18 SPCS","STARLINK-1694","2020-070N","EARTH","TEME","UTC","SGP4","2020-12-16T06:00:02.000160","15.49986594","0.00012360","52.9997","95.3888","76.5198","212.7700","0","U","46544","999","1190","-0.01920000000000","-0.00998849","0.0000000000000","6794.902","92.904","417.607","415.927","PAYLOAD","","US","2020-10-06","AFETR","","2903706","167875289","0 STARLINK-1694","1 46544U 20070N   20351.25002315 -.00998849  00000-0 -19200-1 0  9993","2 46544  52.9997  95.3888 0001236  76.5198 212.7700 15.49986594 11905"
"2.0","GENERATED VIA SPACE-TRACK.ORG API","2020-12-16T14:56:10","18 SPCS","STARLINK-1694","2020-070N","EARTH","TEME","UTC","SGP4","2020-12-16T14:00:04.999680","15.49194428","0.00011440","52.9995","93.7898","101.2326","248.9129","0","U","46544","999","1195","-0.01938500000000","-0.00982006","0.0000000000000","6797.218","92.951","419.860","418.305","PAYLOAD","","US","2020-10-06","AFETR","","2903909","167880119","0 STARLINK-1694","1 46544U 20070N   20351.58339120 -.00982006  00000-0 -19385-1 0  9998","2 46544  52.9995  93.7898 0001144 101.2326 248.9129 15.49194428 11951"
"2.0","GENERATED VIA SPACE-TRACK.ORG API","2020-12-16T19:47:53","18 SPCS","STARLINK-1694","2020-070N","EARTH","TEME","UTC","SGP4","2020-12-16T14:00:04.999680","15.49194428","0.00011440","52.9995","93.7898","101.2326","248.9129","0","U","46544","999","177","-0.01938500000000","-0.00982006","0.0000000000000","6797.218","92.951","419.860","418.305","PAYLOAD","","US","2020-10-06","AFETR","","2903946","167901559","0 STARLINK-1694","1 46544U 20070N   20351.58339120 -.00982006  00000-0 -19385-1 0  9998","2 46544  52.9995  93.7898 0001144 101.2326 248.9129 15.49194428  1770"
"2.0","GENERATED VIA SPACE-TRACK.ORG API","2020-12-16T22:46:10","18 SPCS","STARLINK-1694","2020-070N","EARTH","TEME","UTC","SGP4","2020-12-16T22:00:01.999584","15.48474531","0.00011070","52.9979","92.1958","82.4895","327.1533","0","U","46544","999","1200","-0.02170500000000","-0.01063682","0.0000000000000","6799.324","92.994","421.942","420.437","PAYLOAD","","US","2020-10-06","AFETR","","2904101","167905877","0 STARLINK-1694","1 46544U 20070N   20351.91668981 -.01063682  00000-0 -21705-1 0  9995","2 46544  52.9979  92.1958 0001107  82.4895 327.1533 15.48474531 12004"
